EUTELSAT QUANTUM        
1 49056U 21069B   25284.92719718  .00000118  00000+0  00000+0 0  9995
2 49056   0.0150  31.4113 0002953 201.4446 169.4242  1.00273668 15439
EUTELSAT KONNECT VHTS   
1 53765U 22110A   25284.89558705  .00000009  00000+0  00000+0 0  9997
2 53765   0.0577  97.5622 0002639  93.4165 154.8487  1.00269854  4338
EUTELSAT HOTBIRD 13F    
1 54048U 22134A   25284.89002936  .00000080  00000+0  00000+0 0  9997
2 54048   0.0563 281.4907 0001991  76.0589 356.5992  1.00273388 10881
EUTELSAT HOTBIRD 13G    
1 54225U 22146A   25284.89002936  .00000080  00000+0  00000+0 0  9997
2 54225   0.0494 234.8649 0002084 307.4727 171.8172  1.00272971  4973
EUTELSAT 10B            
1 54259U 22157A   25284.89002936  .00000060  00000+0  00000+0 0  9994
2 54259   0.0600  94.8029 0001815  49.8785 206.4445  1.00268186 10537
EUTELSAT 36D            
1 59346U 24059A   25284.92477050  .00000148  00000+0  00000+0 0  9993
2 59346   0.0172 224.5179 0000183  39.6921 125.3136  1.00270399  5659
